NORAD_CAT_ID,OBJECT_NAME,OBJECT_TYPE,EPOCH,MEAN_MOTION,ECCENTRICITY,INCLINATION,RA_OF_ASC_NODE,ARG_OF_PERICENTER,MEAN_ANOMALY,BSTAR,MEAN_MOTION_DOT,MEAN_MOTION_DDOT,TLE_LINE0,TLE_LINE1,TLE_LINE2,SEMIMAJOR_AXIS,PERIOD,APOGEE,PERIGEE,DECAYED
52628.0,STARLINK-4001,PAYLOAD,2022-11-30 17:26:33,15.08824815,0.0002433,53.2185,248.5317,34.6526,325.4625,1.2211e-05,-9.4e-07,0.0,0 STARLINK-4001,1 52628U 22052AG  22334.72677319 -.00000094  00000-0  12211-4 0  9995,2 52628  53.2185 248.5317 0002433  34.6526 325.4625 15.08824815 30380,6917.927,95.439,541.475,538.109,0.0
52628.0,STARLINK-4001,PAYLOAD,2022-12-01 01:23:28,15.08833475,0.0002504,53.2184,247.0448,38.6288,321.4883,7.6175e-05,9.24e-06,0.0,0 STARLINK-4001,1 52628U 22052AG  22335.05796644  .00000924  00000-0  76175-4 0  9995,2 52628  53.2184 247.0448 0002504  38.6288 321.4883 15.08833475 30818,6917.9,95.438,541.498,538.033,0.0
52628.0,STARLINK-4001,PAYLOAD,2022-12-01 10:55:46,15.08845867,0.0002481,53.2184,245.2605,40.4091,319.7085,0.00011974,1.618e-05,0.0,0 STARLINK-4001,1 52628U 22052AG  22335.45539944  .00001618  00000-0  11974-3 0  9993,2 52628  53.2184 245.2605 0002481  40.4091 319.7085 15.08845867 30496,6917.861999999999,95.437,541.444,538.011,0.0
52628.0,STARLINK-4001,PAYLOAD,2022-12-01 17:17:19,15.08844149,0.0002462,53.2186,244.0715,40.4955,319.622,8.3151e-05,1.035e-05,0.0,0 STARLINK-4001,1 52628U 22052AG  22335.72036128  .00001035  00000-0  83151-4 0  9999,2 52628  53.2186 244.0715 0002462  40.4955 319.6220 15.08844149 30914,6917.868,95.437,541.436,538.03,0.0
52628.0,STARLINK-4001,PAYLOAD,2022-12-02 10:46:33,15.08843684,0.0002646,53.2187,240.8001,42.9517,317.1681,0.00022851,3.351e-05,0.0,0 STARLINK-4001,1 52628U 22052AG  22336.44899920  .00003351  00000-0  22851-3 0  9998,2 52628  53.2187 240.8001 0002646  42.9517 317.1681 15.08843684 30649,6917.869000000002,95.437,541.565,537.904,0.0
52628.0,STARLINK-4001,PAYLOAD,2022-12-02 17:08:06,15.08840239,0.0002634,53.2198,239.6113,41.58600000000001,318.5332,0.00017702,2.53e-05,0.0,0 STARLINK-4001,1 52628U 22052AG  22336.71396256  .00002530  00000-0  17702-3 0  9999,2 52628  53.2198 239.6113 0002634  41.5860 318.5332 15.08840239 30689,6917.88,95.438,541.567,537.922,0.0
52628.0,STARLINK-4001,PAYLOAD,2022-12-03 10:37:21,15.08839612,0.0002321,53.2189,236.3398,37.7591,322.3564,-1.9528e-05,-5.99e-06,0.0,0 STARLINK-4001,1 52628U 22052AG  22337.44260859 -.00000599  00000-0 -19528-4 0  9993,2 52628  53.2189 236.3398 0002321  37.7591 322.3564 15.08839612 31177,6917.882,95.438,541.352,538.141,0.0
52628.0,STARLINK-4001,PAYLOAD,2022-12-04 02:31:13,15.08832618,0.0002473,53.2189,233.366,41.1939,318.9239,-2.851e-05,-7.42e-06,0.0,0 STARLINK-4001,1 52628U 22052AG  22338.10501640 -.00000742  00000-0 -28510-4 0  9994,2 52628  53.2189 233.3660 0002473  41.1939 318.9239 15.08832618 31279,6917.903,95.438,541.479,538.057,0.0
52628.0,STARLINK-4001,PAYLOAD,2022-12-04 10:28:08,15.0883643,0.0002499,53.2189,231.8792,40.4922,319.6256,-1.7572e-05,-5.68e-06,0.0,0 STARLINK-4001,1 52628U 22052AG  22338.43621495 -.00000568  00000-0 -17572-4 0  9993,2 52628  53.2189 231.8792 0002499  40.4922 319.6256 15.08836430 30946,6917.891,95.438,541.485,538.028,0.0
52628.0,STARLINK-4001,PAYLOAD,2022-12-05 00:46:36,15.08843225,0.0002395,53.2179,229.2018,39.1564,320.9601,0.00021332,3.109e-05,0.0,0 STARLINK-4001,1 52628U 22052AG  22339.03236645  .00003109  00000-0  21332-3 0  9999,2 52628  53.2179 229.2018 0002395  39.1564 320.9601 15.08843225 31411,6917.871,95.437,541.3919999999998,538.0790000000002,0.0
52628.0,STARLINK-4001,PAYLOAD,2022-12-05 10:18:55,15.08843502,0.0002336,53.2171,227.4175,39.1288,320.9872,0.00026222,3.888e-05,0.0,0 STARLINK-4001,1 52628U 22052AG  22339.42981090  .00003888  00000-0  26222-3 0  9990,2 52628  53.2171 227.4175 0002336  39.1288 320.9872 15.08843502 31097,6917.87,95.437,541.351,538.119,0.0
52628.0,STARLINK-4001,PAYLOAD,2022-12-05 19:51:14,15.08848944,0.0002501,53.217,225.6336,41.5691,318.5491,0.00032014,4.812e-05,0.0,0 STARLINK-4001,1 52628U 22052AG  22339.82724870  .00004812  00000-0  32014-3 0  9999,2 52628  53.2170 225.6336 0002501  41.5691 318.5491 15.08848944 31156,6917.853,95.437,541.448,537.988,0.0
52628.0,STARLINK-4001,PAYLOAD,2022-12-06 03:48:09,15.08859164,0.0002557,53.2169,224.1472,40.7943,319.324,0.00043376,6.625e-05,0.0,0 STARLINK-4001,1 52628U 22052AG  22340.15844399  .00006625  00000-0  43376-3 0  9993,2 52628  53.2169 224.1472 0002557  40.7943 319.3240 15.08859164 31585,6917.821999999999,95.436,541.456,537.918,0.0
52628.0,STARLINK-4001,PAYLOAD,2022-12-06 16:31:14,15.08843851,0.0002525,53.2169,221.7682,43.8941,316.2252,-7.253099999999997e-06,-4.04e-06,0.0,0 STARLINK-4001,1 52628U 22052AG  22340.68836756 -.00000404  00000-0 -72531-5 0  9997,2 52628  53.2169 221.7682 0002525  43.8941 316.2252 15.08843851 31662,6917.869000000002,95.437,541.48,537.987,0.0
52628.0,STARLINK-4001,PAYLOAD,2022-12-06 19:42:01,15.08823924,0.0002863,53.2169,221.1736,13.8269,346.2801,-0.00038597,-6.424e-05,0.0,0 STARLINK-4001,1 52628U 22052AG  22340.82085413 -.00006424  00000-0 -38597-3 0  9999,2 52628  53.2169 221.1736 0002863  13.8269 346.2801 15.08823924 31304,6917.93,95.439,541.775,537.814,0.0
52628.0,STARLINK-4001,PAYLOAD,2022-12-07 02:03:34,15.08824289,0.0002406,53.2167,219.9843,35.3833,324.7319,-0.00031924,-5.364e-05,0.0,0 STARLINK-4001,1 52628U 22052AG  22341.08581743 -.00005364  00000-0 -31924-3 0  9994,2 52628  53.2167 219.9843 0002406  35.3833 324.7319 15.08824289 31721,6917.928000000001,95.439,541.4580000000002,538.129,0.0
52628.0,STARLINK-4001,PAYLOAD,2022-12-07 16:22:03,15.08828415,0.000239,53.2167,217.3083,36.9714,323.1442,-8.0202e-05,-1.564e-05,0.0,0 STARLINK-4001,1 52628U 22052AG  22341.68198356 -.00001564  00000-0 -80202-4 0  9996,2 52628  53.2167 217.3083 0002390  36.9714 323.1442 15.08828415 31439,6917.916,95.438,541.434,538.127,0.0
52628.0,STARLINK-4001,PAYLOAD,2022-12-08 00:18:58,15.08837976,0.0002371,53.2165,215.8214,37.2898,322.8258,5.6801e-05,6.16e-06,0.0,0 STARLINK-4001,1 52628U 22052AG  22342.01318107  .00000616  00000-0  56801-4 0  9995,2 52628  53.2165 215.8214 0002371  37.2898 322.8258 15.08837976 31862,6917.887,95.438,541.3919999999998,538.111,0.0
52628.0,STARLINK-4001,PAYLOAD,2022-12-08 08:15:54,15.08842828,0.0002395,53.2165,214.3347,36.4246,323.6908,0.00034809,5.256e-05,0.0,0 STARLINK-4001,1 52628U 22052AG  22342.34438169  .00005256  00000-0  34809-3 0  9990,2 52628  53.2165 214.3347 0002395  36.4246 323.6908 15.08842828 31534,6917.871999999999,95.437,541.394,538.08,0.0
52628.0,STARLINK-4001,PAYLOAD,2022-12-09 01:45:08,15.08865991,0.0002463,53.2162,211.0639,38.3203,321.7964,0.00075381,0.00011738,0.0,0 STARLINK-4001,1 52628U 22052AG  22343.07301538  .00011738  00000-0  75381-3 0  9992,2 52628  53.2162 211.0639 0002463  38.3203 321.7964 15.08865991 32021,6917.801,95.436,541.37,537.962,0.0
52628.0,STARLINK-4001,PAYLOAD,2022-12-09 03:20:31,15.08874431,0.0002445,53.2161,210.7666,38.1715,321.945,0.00094388,0.0001478,0.0,0 STARLINK-4001,1 52628U 22052AG  22343.13925338  .00014780  00000-0  94388-3 0  9997,2 52628  53.2161 210.7666 0002445  38.1715 321.9450 15.08874431 31651,6917.775,95.435,541.332,537.9490000000002,0.0
52628.0,STARLINK-4001,PAYLOAD,2022-12-09 19:14:23,15.08825501,0.0002394,53.2157,207.793,26.6954,333.4161,-0.00085453,-0.00013858,0.0,0 STARLINK-4001,1 52628U 22052AG  22343.80165650 -.00013858  00000-0 -85453-3 0  9994,2 52628  53.2157 207.7930 0002394  26.6954 333.4161 15.08825501 32131,6917.925,95.438,541.446,538.134,0.0
52628.0,STARLINK-4001,PAYLOAD,2022-12-10 00:00:32,15.08820611,0.0002278,53.2157,206.9011,34.2689,325.8449,-0.0006377,-0.00010418,0.0,0 STARLINK-4001,1 52628U 22052AG  22344.00038005 -.00010418  00000-0 -63770-3 0  9997,2 52628  53.2157 206.9011 0002278  34.2689 325.8449 15.08820611 31784,6917.94,95.439,541.381,538.229,0.0
52628.0,STARLINK-4001,PAYLOAD,2022-12-10 17:29:48,15.08831686,0.000229,53.2151,203.63,31.091,329.0217,0.0010762,0.00016878,0.0,0 STARLINK-4001,1 52628U 22052AG  22344.72903066  .00016878  00000-0  10762-2 0  9990,2 52628  53.2151 203.6300 0002290  31.0910 329.0217 15.08831686 32277,6917.906,95.438,541.355,538.187,0.0
52628.0,STARLINK-4001,PAYLOAD,2022-12-10 19:05:11,15.088374800000002,0.000231,53.2151,203.3328,31.03,329.0829,0.0012208,0.00019193,0.0,0 STARLINK-4001,1 52628U 22052AG  22344.79527042  .00019193  00000-0  12208-2 0  9993,2 52628  53.2151 203.3328 0002310  31.0300 329.0829 15.08837480 31906,6917.888000000001,95.438,541.351,538.155,0.0
52628.0,STARLINK-4001,PAYLOAD,2022-12-10 23:51:20,15.08846018,0.0002307,53.2151,202.4409,31.7704,328.3427,0.0012486,0.00019643,0.0,0 STARLINK-4001,1 52628U 22052AG  22344.99398991  .00019643  00000-0  12486-2 0  9992,2 52628  53.2151 202.4409 0002307  31.7704 328.3427 15.08846018 31933,6917.861999999999,95.437,541.323,538.131,0.0
52628.0,STARLINK-4001,PAYLOAD,2022-12-11 18:55:58,15.08850858,0.0002413,53.2149,198.873,33.8356,326.279,0.00073461,0.00011426,0.0,0 STARLINK-4001,1 52628U 22052AG  22345.78886834  .00011426  00000-0  73461-3 0  9990,2 52628  53.2149 198.8730 0002413  33.8356 326.2790 15.08850858 32432,6917.847,95.437,541.381,538.043,0.0
52628.0,STARLINK-4001,PAYLOAD,2022-12-11 20:31:21,15.08851447,0.00024,53.215,198.5753,33.9739,326.1406,0.00054237,8.357e-05,0.0,0 STARLINK-4001,1 52628U 22052AG  22345.85510778  .00008357  00000-0  54237-3 0  9998,2 52628  53.2150 198.5753 0002400  33.9739 326.1406 15.08851447 32065,6917.845,95.437,541.371,538.05,0.0
52628.0,STARLINK-4001,PAYLOAD,2022-12-11 22:06:44,15.08852495,0.0002407,53.215,198.278,34.132,325.9827,0.0005563,8.58e-05,0.0,0 STARLINK-4001,1 52628U 22052AG  22345.92134732  .00008580  00000-0  55630-3 0  9994,2 52628  53.2150 198.2780 0002407  34.1320 325.9827 15.08852495 32077,6917.842,95.437,541.372,538.0419999999998,0.0
